[
  {
    "COMMENT": "GENERATED VIA SPACETRACK.ORG API",
    "ORIGINATOR": "18 SPCS",
    "NORAD_CAT_ID": "43437",
    "OBJECT_NAME": "SENTINEL 3B",
    "OBJECT_TYPE": "PAYLOAD",
    "CLASSIFICATION_TYPE": "U",
    "INTLDES": "18039A",
    "EPOCH": "2023-07-11 04:25:08",
    "EPOCH_MICROSECONDS": "446656",
    "MEAN_MOTION": "14.26734724",
    "ECCENTRICITY": "0.0001328",
    "INCLINATION": "98.6267",
    "RA_OF_ASC_NODE": "258.9567",
    "ARG_OF_PERICENTER": "109.4262",
    "MEAN_ANOMALY": "250.7062",
    "EPHEMERIS_TYPE": "0",
    "ELEMENT_SET_NO": "999",
    "REV_AT_EPOCH": "27126",
    "BSTAR": "0.00007016",
    "MEAN_MOTION_DOT": "0.00000126",
    "MEAN_MOTION_DDOT": "0",
    "FILE": "3955389",
    "TLE_LINE0": "0 SENTINEL 3B",
    "TLE_LINE1": "1 43437U 18039A   23192.18412554  .00000126  00000-0  70160-4 0  9996",
    "TLE_LINE2": "2 43437  98.6267 258.9567 0001328 109.4262 250.7062 14.26734724271261",
    "OBJECT_ID": "2018-039A",
    "OBJECT_NUMBER": "43437",
    "SEMIMAJOR_AXIS": "7180.803",
    "PERIOD": "100.930",
    "APOGEE": "803.622",
    "PERIGEE": "801.715",
    "DECAYED": "0"
  },
  {
    "COMMENT": "GENERATED VIA SPACETRACK.ORG API",
    "ORIGINATOR": "18 SPCS",
    "NORAD_CAT_ID": "43437",
    "OBJECT_NAME": "SENTINEL 3B",
    "OBJECT_TYPE": "PAYLOAD",
    "CLASSIFICATION_TYPE": "U",
    "INTLDES": "18039A",
    "EPOCH": "2023-07-12 10:42:54",
    "EPOCH_MICROSECONDS": "568224",
    "MEAN_MOTION": "14.26735174",
    "ECCENTRICITY": "0.0001339",
    "INCLINATION": "98.6267",
    "RA_OF_ASC_NODE": "260.2012",
    "ARG_OF_PERICENTER": "109.191",
    "MEAN_ANOMALY": "250.9415",
    "EPHEMERIS_TYPE": "0",
    "ELEMENT_SET_NO": "999",
    "REV_AT_EPOCH": "27144",
    "BSTAR": "0.000069804",
    "MEAN_MOTION_DOT": "0.00000125",
    "MEAN_MOTION_DDOT": "0",
    "FILE": "3955940",
    "TLE_LINE0": "0 SENTINEL 3B",
    "TLE_LINE1": "1 43437U 18039A   23193.44646491  .00000125  00000-0  69804-4 0  9997",
    "TLE_LINE2": "2 43437  98.6267 260.2012 0001339 109.1910 250.9415 14.26735174271445",
    "OBJECT_ID": "2018-039A",
    "OBJECT_NUMBER": "43437",
    "SEMIMAJOR_AXIS": "7180.802",
    "PERIOD": "100.930",
    "APOGEE": "803.628",
    "PERIGEE": "801.705",
    "DECAYED": "0"
  },
  {
    "COMMENT": "GENERATED VIA SPACETRACK.ORG API",
    "ORIGINATOR": "18 SPCS",
    "NORAD_CAT_ID": "43437",
    "OBJECT_NAME": "SENTINEL 3B",
    "OBJECT_TYPE": "PAYLOAD",
    "CLASSIFICATION_TYPE": "U",
    "INTLDES": "18039A",
    "EPOCH": "2023-07-13 17:00:40",
    "EPOCH_MICROSECONDS": "656960",
    "MEAN_MOTION": "14.26735746",
    "ECCENTRICITY": "0.000135",
    "INCLINATION": "98.6267",
    "RA_OF_ASC_NODE": "261.4457",
    "ARG_OF_PERICENTER": "108.7983",
    "MEAN_ANOMALY": "251.3344",
    "EPHEMERIS_TYPE": "0",
    "ELEMENT_SET_NO": "999",
    "REV_AT_EPOCH": "27162",
    "BSTAR": "0.000078959",
    "MEAN_MOTION_DOT": "0.00000147",
    "MEAN_MOTION_DDOT": "0",
    "FILE": "3956587",
    "TLE_LINE0": "0 SENTINEL 3B",
    "TLE_LINE1": "1 43437U 18039A   23194.70880390  .00000147  00000-0  78959-4 0  9990",
    "TLE_LINE2": "2 43437  98.6267 261.4457 0001350 108.7983 251.3344 14.26735746271620",
    "OBJECT_ID": "2018-039A",
    "OBJECT_NUMBER": "43437",
    "SEMIMAJOR_AXIS": "7180.800",
    "PERIOD": "100.930",
    "APOGEE": "803.634",
    "PERIGEE": "801.695",
    "DECAYED": "0"
  },
  {
    "COMMENT": "GENERATED VIA SPACETRACK.ORG API",
    "ORIGINATOR": "18 SPCS",
    "NORAD_CAT_ID": "43437",
    "OBJECT_NAME": "SENTINEL 3B",
    "OBJECT_TYPE": "PAYLOAD",
    "CLASSIFICATION_TYPE": "U",
    "INTLDES": "18039A",
    "EPOCH": "2023-07-15 02:40:25",
    "EPOCH_MICROSECONDS": "154400",
    "MEAN_MOTION": "14.26736346",
    "ECCENTRICITY": "0.0001367",
    "INCLINATION": "98.6267",
    "RA_OF_ASC_NODE": "262.8285",
    "ARG_OF_PERICENTER": "108.1067",
    "MEAN_ANOMALY": "252.0262",
    "EPHEMERIS_TYPE": "0",
    "ELEMENT_SET_NO": "999",
    "REV_AT_EPOCH": "27182",
    "BSTAR": "0.000087767",
    "MEAN_MOTION_DOT": "0.00000169",
    "MEAN_MOTION_DDOT": "0",
    "FILE": "3958090",
    "TLE_LINE0": "0 SENTINEL 3B",
    "TLE_LINE1": "1 43437U 18039A   23196.11140225  .00000169  00000-0  87767-4 0  9994",
    "TLE_LINE2": "2 43437  98.6267 262.8285 0001367 108.1067 252.0262 14.26736346271825",
    "OBJECT_ID": "2018-039A",
    "OBJECT_NUMBER": "43437",
    "SEMIMAJOR_AXIS": "7180.798",
    "PERIOD": "100.930",
    "APOGEE": "803.644",
    "PERIGEE": "801.681",
    "DECAYED": "0"
  },
  {
    "COMMENT": "GENERATED VIA SPACETRACK.ORG API",
    "ORIGINATOR": "18 SPCS",
    "NORAD_CAT_ID": "43437",
    "OBJECT_NAME": "SENTINEL 3B",
    "OBJECT_TYPE": "PAYLOAD",
    "CLASSIFICATION_TYPE": "U",
    "INTLDES": "18039A",
    "EPOCH": "2023-07-16 03:55:13",
    "EPOCH_MICROSECONDS": "500480",
    "MEAN_MOTION": "14.26736665",
    "ECCENTRICITY": "0.0001383",
    "INCLINATION": "98.6266",
    "RA_OF_ASC_NODE": "263.8655",
    "ARG_OF_PERICENTER": "107.7233",
    "MEAN_ANOMALY": "252.4098",
    "EPHEMERIS_TYPE": "0",
    "ELEMENT_SET_NO": "999",
    "REV_AT_EPOCH": "27197",
    "BSTAR": "0.000081625",
    "MEAN_MOTION_DOT": "0.00000154",
    "MEAN_MOTION_DDOT": "0",
    "FILE": "3958931",
    "TLE_LINE0": "0 SENTINEL 3B",
    "TLE_LINE1": "1 43437U 18039A   23197.16335070  .00000154  00000-0  81625-4 0  9995",
    "TLE_LINE2": "2 43437  98.6266 263.8655 0001383 107.7233 252.4098 14.26736665271975",
    "OBJECT_ID": "2018-039A",
    "OBJECT_NUMBER": "43437",
    "SEMIMAJOR_AXIS": "7180.797",
    "PERIOD": "100.930",
    "APOGEE": "803.655",
    "PERIGEE": "801.669",
    "DECAYED": "0"
  },
  {
    "COMMENT": "GENERATED VIA SPACETRACK.ORG API",
    "ORIGINATOR": "18 SPCS",
    "NORAD_CAT_ID": "43437",
    "OBJECT_NAME": "SENTINEL 3B",
    "OBJECT_TYPE": "PAYLOAD",
    "CLASSIFICATION_TYPE": "U",
    "INTLDES": "18039A",
    "EPOCH": "2023-07-17 10:12:59",
    "EPOCH_MICROSECONDS": "471712",
    "MEAN_MOTION": "14.2673731",
    "ECCENTRICITY": "0.0001398",
    "INCLINATION": "98.6266",
    "RA_OF_ASC_NODE": "265.11",
    "ARG_OF_PERICENTER": "107.5271",
    "MEAN_ANOMALY": "252.6062",
    "EPHEMERIS_TYPE": "0",
    "ELEMENT_SET_NO": "999",
    "REV_AT_EPOCH": "27215",
    "BSTAR": "0.000092121",
    "MEAN_MOTION_DOT": "0.00000179",
    "MEAN_MOTION_DDOT": "0",
    "FILE": "3960097",
    "TLE_LINE0": "0 SENTINEL 3B",
    "TLE_LINE1": "1 43437U 18039A   23198.42568833  .00000179  00000-0  92121-4 0  9990",
    "TLE_LINE2": "2 43437  98.6266 265.1100 0001398 107.5271 252.6062 14.26737310272153",
    "OBJECT_ID": "2018-039A",
    "OBJECT_NUMBER": "43437",
    "SEMIMAJOR_AXIS": "7180.794",
    "PERIOD": "100.930",
    "APOGEE": "803.663",
    "PERIGEE": "801.656",
    "DECAYED": "0"
  },
  {
    "COMMENT": "GENERATED VIA SPACETRACK.ORG API",
    "ORIGINATOR": "18 SPCS",
    "NORAD_CAT_ID": "43437",
    "OBJECT_NAME": "SENTINEL 3B",
    "OBJECT_TYPE": "PAYLOAD",
    "CLASSIFICATION_TYPE": "U",
    "INTLDES": "18039A",
    "EPOCH": "2023-07-19 02:36:40",
    "EPOCH_MICROSECONDS": "698432",
    "MEAN_MOTION": "14.26738009",
    "ECCENTRICITY": "0.0001427",
    "INCLINATION": "98.6264",
    "RA_OF_ASC_NODE": "266.7692",
    "ARG_OF_PERICENTER": "106.9354",
    "MEAN_ANOMALY": "253.1983",
    "EPHEMERIS_TYPE": "0",
    "ELEMENT_SET_NO": "999",
    "REV_AT_EPOCH": "27239",
    "BSTAR": "0.000090381",
    "MEAN_MOTION_DOT": "0.00000175",
    "MEAN_MOTION_DDOT": "0",
    "FILE": "3961727",
    "TLE_LINE0": "0 SENTINEL 3B",
    "TLE_LINE1": "1 43437U 18039A   23200.10880438  .00000175  00000-0  90381-4 0  9999",
    "TLE_LINE2": "2 43437  98.6264 266.7692 0001427 106.9354 253.1983 14.26738009272392",
    "OBJECT_ID": "2018-039A",
    "OBJECT_NUMBER": "43437",
    "SEMIMAJOR_AXIS": "7180.792",
    "PERIOD": "100.930",
    "APOGEE": "803.682",
    "PERIGEE": "801.632",
    "DECAYED": "0"
  },
  {
    "COMMENT": "GENERATED VIA SPACETRACK.ORG API",
    "ORIGINATOR": "18 SPCS",
    "NORAD_CAT_ID": "43437",
    "OBJECT_NAME": "SENTINEL 3B",
    "OBJECT_TYPE": "PAYLOAD",
    "CLASSIFICATION_TYPE": "U",
    "INTLDES": "18039A",
    "EPOCH": "2023-07-20 15:38:23",
    "EPOCH_MICROSECONDS": "415360",
    "MEAN_MOTION": "14.26738778",
    "ECCENTRICITY": "0.0001431",
    "INCLINATION": "98.6263",
    "RA_OF_ASC_NODE": "268.2902",
    "ARG_OF_PERICENTER": "106.6255",
    "MEAN_ANOMALY": "253.5083",
    "EPHEMERIS_TYPE": "0",
    "ELEMENT_SET_NO": "999",
    "REV_AT_EPOCH": "27261",
    "BSTAR": "0.000092887",
    "MEAN_MOTION_DOT": "0.00000181",
    "MEAN_MOTION_DDOT": "0",
    "FILE": "3962597",
    "TLE_LINE0": "0 SENTINEL 3B",
    "TLE_LINE1": "1 43437U 18039A   23201.65165990  .00000181  00000-0  92887-4 0  9999",
    "TLE_LINE2": "2 43437  98.6263 268.2902 0001431 106.6255 253.5083 14.26738778272617",
    "OBJECT_ID": "2018-039A",
    "OBJECT_NUMBER": "43437",
    "SEMIMAJOR_AXIS": "7180.790",
    "PERIOD": "100.929",
    "APOGEE": "803.682",
    "PERIGEE": "801.627",
    "DECAYED": "0"
  }
]